{
  "type": "FeatureCollection",
  "features": [
    {
      "type": "Feature",
      "properties": {
        "norad_id": 37960,
        "name": "COSMOS 2251 DEB",
        "group": "cosmos-2251-debris",
        "lat": -32.21513963051006,
        "lon": -169.31843315405533,
        "alt_km": 914.1765609371105,
        "timestamp": "2025-12-04T15:47:54.497081+00:00",
        "meta_object_name": "COSMOS 2251 DEB",
        "meta_object_id": "1993-036BPK",
        "meta_epoch": "2025-12-03T21:12:07.257312",
        "meta_mean_motion": 14.07814282,
        "meta_eccentricity": 0.0249391,
        "meta_inclination": 74.0597,
        "meta_ra_of_asc_node": 202.4135,
        "meta_arg_of_pericenter": 223.2631,
        "meta_mean_anomaly": 134.8686,
        "meta_ephemeris_type": 0,
        "meta_classification_type": "U",
        "meta_norad_cat_id": 37960,
        "meta_element_set_no": 999,
        "meta_rev_at_epoch": 77281,
        "meta_bstar": 0.0016575,
        "meta_mean_motion_dot": 3.709e-05,
        "meta_mean_motion_ddot": 0,
        "tle_line1": "1 37960U 93036BPK 25337.88341733  .00003709  00000+0  16575-2 0  9997",
        "tle_line2": "2 37960  74.0597 202.4135 0249391 223.2631 134.8686 14.07814282772811"
      },
      "geometry": {
        "type": "Point",
        "coordinates": [
          -169.31843315405533,
          -32.21513963051006
        ]
      }
    },
    {
      "type": "Feature",
      "properties": {
        "norad_id": 37961,
        "name": "COSMOS 2251 DEB",
        "group": "cosmos-2251-debris",
        "lat": 25.92419817763613,
        "lon": -35.523279392474265,
        "alt_km": 694.4126087220093,
        "timestamp": "2025-12-04T15:47:54.497093+00:00",
        "meta_object_name": "COSMOS 2251 DEB",
        "meta_object_id": "1993-036BPL",
        "meta_epoch": "2025-12-01T04:44:47.787648",
        "meta_mean_motion": 14.57792656,
        "meta_eccentricity": 0.0041244,
        "meta_inclination": 74.04,
        "meta_ra_of_asc_node": 159.049,
        "meta_arg_of_pericenter": 241.5465,
        "meta_mean_anomaly": 118.1542,
        "meta_ephemeris_type": 0,
        "meta_classification_type": "U",
        "meta_norad_cat_id": 37961,
        "meta_element_set_no": 999,
        "meta_rev_at_epoch": 79897,
        "meta_bstar": 0.001072,
        "meta_mean_motion_dot": 4.934e-05,
        "meta_mean_motion_ddot": 0,
        "tle_line1": "1 37961U 93036BPL 25335.19777532  .00004934  00000+0  10720-2 0  9997",
        "tle_line2": "2 37961  74.0400 159.0490 0041244 241.5465 118.1542 14.57792656798977"
      },
      "geometry": {
        "type": "Point",
        "coordinates": [
          -35.523279392474265,
          25.92419817763613
        ]
      }
    },
    {
      "type": "Feature",
      "properties": {
        "norad_id": 37966,
        "name": "COSMOS 2251 DEB",
        "group": "cosmos-2251-debris",
        "lat": 53.416720764396,
        "lon": 44.55883775157158,
        "alt_km": 520.7581705772482,
        "timestamp": "2025-12-04T15:47:54.497104+00:00",
        "meta_object_name": "COSMOS 2251 DEB",
        "meta_object_id": "1993-036BPR",
        "meta_epoch": "2025-12-04T00:57:24.425856",
        "meta_mean_motion": 15.1122342,
        "meta_eccentricity": 0.0008631,
        "meta_inclination": 73.977,
        "meta_ra_of_asc_node": 248.6217,
        "meta_arg_of_pericenter": 122.4784,
        "meta_mean_anomaly": 237.7244,
        "meta_ephemeris_type": 0,
        "meta_classification_type": "U",
        "meta_norad_cat_id": 37966,
        "meta_element_set_no": 999,
        "meta_rev_at_epoch": 85211,
        "meta_bstar": 0.0061628837,
        "meta_mean_motion_dot": 0.00105178,
        "meta_mean_motion_ddot": 0,
        "tle_line1": "1 37966U 93036BPR 25338.03986604  .00105178  00000+0  61629-2 0  9996",
        "tle_line2": "2 37966  73.9770 248.6217 0008631 122.4784 237.7244 15.11223420852119"
      },
      "geometry": {
        "type": "Point",
        "coordinates": [
          44.55883775157158,
          53.416720764396
        ]
      }
    },
    {
      "type": "Feature",
      "properties": {
        "norad_id": 37967,
        "name": "COSMOS 2251 DEB",
        "group": "cosmos-2251-debris",
        "lat": 65.9982724525301,
        "lon": -167.5694933772039,
        "alt_km": 830.9275679533075,
        "timestamp": "2025-12-04T15:47:54.497115+00:00",
        "meta_object_name": "COSMOS 2251 DEB",
        "meta_object_id": "1993-036BPS",
        "meta_epoch": "2025-12-04T05:27:45.885888",
        "meta_mean_motion": 14.40381703,
        "meta_eccentricity": 0.01507332,
        "meta_inclination": 74.0136,
        "meta_ra_of_asc_node": 153.1499,
        "meta_arg_of_pericenter": 293.7669,
        "meta_mean_anomaly": 64.774,
        "meta_ephemeris_type": 0,
        "meta_classification_type": "U",
        "meta_norad_cat_id": 37967,
        "meta_element_set_no": 999,
        "meta_rev_at_epoch": 64613,
        "meta_bstar": 0.0030034749,
        "meta_mean_motion_dot": 0.00010892,
        "meta_mean_motion_ddot": 0,
        "tle_line1": "1 37967U 93036BPS 25338.22761442  .00010892  00000+0  30035-2 0  9994",
        "tle_line2": "2 37967  74.0136 153.1499 0150733 293.7669  64.7740 14.40381703646137"
      },
      "geometry": {
        "type": "Point",
        "coordinates": [
          -167.5694933772039,
          65.9982724525301
        ]
      }
    },
    {
      "type": "Feature",
      "properties": {
        "norad_id": 37968,
        "name": "COSMOS 2251 DEB",
        "group": "cosmos-2251-debris",
        "lat": -72.3979022557276,
        "lon": -137.11491338052778,
        "alt_km": 607.2477523551888,
        "timestamp": "2025-12-04T15:47:54.497126+00:00",
        "meta_object_name": "COSMOS 2251 DEB",
        "meta_object_id": "1993-036BPT",
        "meta_epoch": "2025-12-03T03:21:20.781504",
        "meta_mean_motion": 15.00197638,
        "meta_eccentricity": 0.00808241,
        "meta_inclination": 74.0001,
        "meta_ra_of_asc_node": 290.7252,
        "meta_arg_of_pericenter": 48.8285,
        "meta_mean_anomaly": 311.9836,
        "meta_ephemeris_type": 0,
        "meta_classification_type": "U",
        "meta_norad_cat_id": 37968,
        "meta_element_set_no": 999,
        "meta_rev_at_epoch": 60075,
        "meta_bstar": 0.0013441412,
        "meta_mean_motion_dot": 0.00018013,
        "meta_mean_motion_ddot": 0,
        "tle_line1": "1 37968U 93036BPT 25337.13982386  .00018013  00000+0  13441-2 0  9991",
        "tle_line2": "2 37968  74.0001 290.7252 0080824  48.8285 311.9836 15.00197638600750"
      },
      "geometry": {
        "type": "Point",
        "coordinates": [
          -137.11491338052778,
          -72.3979022557276
        ]
      }
    },
    {
      "type": "Feature",
      "properties": {
        "norad_id": 37971,
        "name": "COSMOS 2251 DEB",
        "group": "cosmos-2251-debris",
        "lat": -73.36025338630634,
        "lon": -49.243430115491414,
        "alt_km": 719.7241501576,
        "timestamp": "2025-12-04T15:47:54.497136+00:00",
        "meta_object_name": "COSMOS 2251 DEB",
        "meta_object_id": "1993-036BPW",
        "meta_epoch": "2025-12-03T12:03:21.948768",
        "meta_mean_motion": 14.48378174,
        "meta_eccentricity": 0.00684434,
        "meta_inclination": 73.9938,
        "meta_ra_of_asc_node": 59.093,
        "meta_arg_of_pericenter": 199.3195,
        "meta_mean_anomaly": 160.5369,
        "meta_ephemeris_type": 0,
        "meta_classification_type": "U",
        "meta_norad_cat_id": 37971,
        "meta_element_set_no": 999,
        "meta_rev_at_epoch": 60544,
        "meta_bstar": 0.0031797181,
        "meta_mean_motion_dot": 0.00012254,
        "meta_mean_motion_ddot": 0,
        "tle_line1": "1 37971U 93036BPW 25337.50233737  .00012254  00000+0  31797-2 0  9990",
        "tle_line2": "2 37971  73.9938  59.0930 0068443 199.3195 160.5369 14.48378174605442"
      },
      "geometry": {
        "type": "Point",
        "coordinates": [
          -49.243430115491414,
          -73.36025338630634
        ]
      }
    },
    {
      "type": "Feature",
      "properties": {
        "norad_id": 37975,
        "name": "COSMOS 2251 DEB",
        "group": "cosmos-2251-debris",
        "lat": 72.4149700999094,
        "lon": 44.77230145644245,
        "alt_km": 662.1984204068958,
        "timestamp": "2025-12-04T15:47:54.497146+00:00",
        "meta_object_name": "COSMOS 2251 DEB",
        "meta_object_id": "1993-036BQA",
        "meta_epoch": "2025-11-29T10:05:48.736608",
        "meta_mean_motion": 14.74991313,
        "meta_eccentricity": 0.00977788,
        "meta_inclination": 74.0026,
        "meta_ra_of_asc_node": 350.1763,
        "meta_arg_of_pericenter": 342.2584,
        "meta_mean_anomaly": 17.5181,
        "meta_ephemeris_type": 0,
        "meta_classification_type": "U",
        "meta_norad_cat_id": 37975,
        "meta_element_set_no": 999,
        "meta_rev_at_epoch": 69549,
        "meta_bstar": 0.0028756754,
        "meta_mean_motion_dot": 0.00020929,
        "meta_mean_motion_ddot": 0,
        "tle_line1": "1 37975U 93036BQA 25333.42070297  .00020929  00000+0  28757-2 0  9991",
        "tle_line2": "2 37975  74.0026 350.1763 0097778 342.2584  17.5181 14.74991313695491"
      },
      "geometry": {
        "type": "Point",
        "coordinates": [
          44.77230145644245,
          72.4149700999094
        ]
      }
    }
  ]
}